LYNK TOWER 4            
1 55034U 23001AB  26068.67743801  .00009160  00000+0  30014-3 0  9997
2 55034  97.3324 128.5940 0010321 112.3386 247.8950 15.31819885176588
STARLINK-33948          
1 66147U 25240B   26068.21612546  .00012180  00000+0  42274-3 0  9999
2 66147  53.1588  65.1773 0001149  83.7551 276.3581 15.30196599 21967
